{
  "type": "FeatureCollection",
  "source": "OpenStreetMap contributors via Overpass API",
  "license": "ODbL",
  "features": [
    {
      "type": "Feature",
      "properties": {
        "name": "",
        "osm_type": "way",
        "osm_id": 177303408
      },
      "geometry": {
        "type": "Polygon",
        "coordinates": [
          [
            [
              -1.116414,
              44.9524716
            ],
            [
              -1.1166983,
              44.952073
            ],
            [
              -1.1168486,
              44.9516743
            ],
            [
              -1.116811,
              44.951382
            ],
            [
              -1.1166662,
              44.9512226
            ],
            [
              -1.116575,
              44.9510251
            ],
            [
              -1.1164838,
              44.9507252
            ],
            [
              -1.1163765,
              44.9506683
            ],
            [
              -1.1160868,
              44.9508239
            ],
            [
              -1.1159902,
              44.9510859
            ],
            [
              -1.1160546,
              44.9513251
            ],
            [
              -1.1162424,
              44.9514124
            ],
            [
              -1.1162263,
              44.9516022
            ],
            [
              -1.1160493,
              44.9517427
            ],
            [
              -1.1158186,
              44.9518452
            ],
            [
              -1.1158186,
              44.9520919
            ],
            [
              -1.1159795,
              44.9522628
            ],
            [
              -1.116414,
              44.9524716
            ]
          ]
        ]
      }
    },
    {
      "type": "Feature",
      "properties": {
        "name": "",
        "osm_type": "way",
        "osm_id": 340748309
      },
      "geometry": {
        "type": "Polygon",
        "coordinates": [
          [
            [
              -1.1165481,
              44.9505193
            ],
            [
              -1.1166388,
              44.9503774
            ],
            [
              -1.116572,
              44.9502507
            ],
            [
              -1.1165027,
              44.9501578
            ],
            [
              -1.1163022,
              44.9502068
            ],
            [
              -1.1161734,
              44.9501865
            ],
            [
              -1.1161376,
              44.9502355
            ],
            [
              -1.116011,
              44.9502591
            ],
            [
              -1.116011,
              44.9503233
            ],
            [
              -1.1162378,
              44.9502591
            ],
            [
              -1.1163786,
              44.9503504
            ],
            [
              -1.1164613,
              44.9504952
            ],
            [
              -1.1165481,
              44.9505193
            ]
          ]
        ]
      }
    },
    {
      "type": "Feature",
      "properties": {
        "name": "",
        "osm_type": "way",
        "osm_id": 340748310
      },
      "geometry": {
        "type": "Polygon",
        "coordinates": [
          [
            [
              -1.1131494,
              44.9499496
            ],
            [
              -1.1132608,
              44.9500882
            ],
            [
              -1.1133823,
              44.9501646
            ],
            [
              -1.1134937,
              44.9502889
            ],
            [
              -1.1136085,
              44.9503581
            ],
            [
              -1.1136119,
              44.9504513
            ],
            [
              -1.1138144,
              44.9506042
            ],
            [
              -1.1140001,
              44.9506257
            ],
            [
              -1.1140608,
              44.9505182
            ],
            [
              -1.1137941,
              44.9502172
            ],
            [
              -1.1136659,
              44.9500523
            ],
            [
              -1.1133486,
              44.949909
            ],
            [
              -1.1131494,
              44.9499496
            ]
          ]
        ]
      }
    },
    {
      "type": "Feature",
      "properties": {
        "name": "",
        "osm_type": "way",
        "osm_id": 340748311
      },
      "geometry": {
        "type": "Polygon",
        "coordinates": [
          [
            [
              -1.1185631,
              44.9527284
            ],
            [
              -1.1182576,
              44.9528466
            ],
            [
              -1.117785,
              44.9527757
            ],
            [
              -1.117594,
              44.953002
            ],
            [
              -1.1172933,
              44.9531236
            ],
            [
              -1.1175081,
              44.953225
            ],
            [
              -1.1178948,
              44.9531878
            ],
            [
              -1.1179902,
              44.9531304
            ],
            [
              -1.1182623,
              44.9531709
            ],
            [
              -1.1185392,
              44.9531135
            ],
            [
              -1.1187063,
              44.9529378
            ],
            [
              -1.1187063,
              44.9528162
            ],
            [
              -1.1185631,
              44.9527284
            ]
          ]
        ]
      }
    },
    {
      "type": "Feature",
      "properties": {
        "name": "Le Bois de Sémignan",
        "osm_type": "way",
        "osm_id": 1064104403
      },
      "geometry": {
        "type": "Polygon",
        "coordinates": [
          [
            [
              -1.0818824,
              44.9764614
            ],
            [
              -1.0816826,
              44.9771777
            ],
            [
              -1.0812695,
              44.9771985
            ],
            [
              -1.0810456,
              44.9773826
            ],
            [
              -1.0805172,
              44.9770467
            ],
            [
              -1.080485,
              44.9765164
            ],
            [
              -1.0813674,
              44.9764662
            ],
            [
              -1.0818824,
              44.9764614
            ]
          ]
        ]
      }
    },
    {
      "type": "Feature",
      "properties": {
        "name": "Place des Oiseaux",
        "osm_type": "way",
        "osm_id": 1317694732
      },
      "geometry": {
        "type": "Polygon",
        "coordinates": [
          [
            [
              -1.1449282,
              44.9675995
            ],
            [
              -1.1447986,
              44.9671129
            ],
            [
              -1.1444587,
              44.9671425
            ],
            [
              -1.144582,
              44.9676321
            ],
            [
              -1.1449282,
              44.9675995
            ]
          ]
        ]
      }
    }
  ]
}